G28
T0
M82 ;absolute extrusion mode
M605 S0
BREAK_CLEAN P=50
G21 ; set units to millimeters
G90 ; use absolute positioning
M82 ; absolute extrusion mode
M104 T0 S150 ; set extruder temp
M140 S60 ; set bed temp
G28 Z ; home z
M109 T0 S150
_SYNC_EXTRUDERS_TEMP
G28 XY; home XY
START_GCODE 
set_calibration_temperature T0 R1
PRIME_ROUTINE
G92 E0
T0
G92 E0
G1 F2700 E-6.5
;LAYER_COUNT:1
G0 F18000 X75 Y150
;LAYER:0
M107
M104 T1 S100
G1 F600 Z0.75
G0 F18000 X84.635 Y123.553 Z0.75
set_calibration_temperature T1 R0
;TYPE:SKIRT
G1 F600 Z0.25
G1 F2100 E0
G1 X84.595 Y120.757 E0.04471
G1 X84.48 Y118.05 E0.08803
G1 X84.289 Y115.346 E0.13137
G1 X84.015 Y112.582 E0.17578
G1 X83.676 Y109.937 E0.21842
G1 X83.246 Y107.197 E0.26277
G1 X82.813 Y104.836 E0.30115
G1 X82.753 Y104.198 E0.31139
G1 X82.969 Y101.111 E0.36087
G1 X83.081 Y98.395 E0.40433
G1 X83.117 Y95.644 E0.44832
G1 X83.075 Y92.905 E0.49212
G1 X82.957 Y90.193 E0.53552
G1 X82.642 Y86.085 E0.6014
G1 X82.752 Y85.339 E0.61346
G1 X82.923 Y84.809 E0.62236
G1 X83.18 Y84.305 E0.63141
G1 X83.683 Y83.649 E0.64462
G1 X84.663 Y82.699 E0.66645
G1 X85.295 Y82.324 E0.6782
G1 X85.873 Y82.103 E0.68809
G1 X86.573 Y81.974 E0.69947
G1 X89.583 Y81.742 E0.74774
G1 X92.271 Y81.456 E0.79096
G1 X94.972 Y81.091 E0.83454
G1 X97.665 Y80.65 E0.87817
G1 X100.649 Y80.077 E0.92676
G1 X101.535 Y80.12 E0.94094
G1 X104.243 Y80.859 E0.98582
G1 X106.92 Y81.511 E1.02987
G1 X109.596 Y82.083 E1.07363
G1 X112.257 Y82.575 E1.11689
G1 X114.938 Y82.992 E1.16028
G1 X117.668 Y83.339 E1.20428
G1 X120.387 Y83.605 E1.24796
G1 X123.095 Y83.794 E1.29136
G1 X125.808 Y83.905 E1.33478
G1 X128.49 Y83.942 E1.37766
G1 X202.885 Y83.942 E2.56716
G1 X203.503 Y84 E2.57709
G1 X204.044 Y84.136 E2.58601
G1 X204.556 Y84.356 E2.59492
G1 X205.07 Y84.685 E2.60467
G1 X205.482 Y85.059 E2.61357
G1 X205.831 Y85.494 E2.62249
G1 X206.285 Y86.448 E2.63938
G1 X206.43 Y87.274 E2.65279
G1 X206.503 Y88.653 E2.67487
G1 X206.695 Y91.388 E2.71871
G1 X206.967 Y94.134 E2.76283
G1 X207.311 Y96.835 E2.80636
G1 X207.645 Y99.086 E2.84275
G1 X207.646 Y119.826 E3.17436
G1 X207.588 Y120.445 E3.1843
G1 X207.435 Y121.037 E3.19408
G1 X207.234 Y121.498 E3.20212
G1 X206.905 Y122.013 E3.21189
G1 X206.14 Y122.743 E3.2288
G1 X205.428 Y123.127 E3.24173
G1 X202.389 Y124.345 E3.29408
G1 X199.904 Y125.431 E3.33744
G1 X197.415 Y126.601 E3.38141
G1 X194.984 Y127.831 E3.42497
G1 X192.586 Y129.129 E3.46857
G1 X190.202 Y130.509 E3.51262
G1 X187.912 Y131.921 E3.55563
G1 X185.618 Y133.427 E3.59951
G1 X183.389 Y134.983 E3.64297
G1 X181.166 Y136.631 E3.68722
G1 X179.06 Y138.286 E3.73004
G1 X176.929 Y140.062 E3.7744
G1 X174.897 Y141.852 E3.81769
G1 X172.904 Y143.712 E3.86128
G1 X170.957 Y145.635 E3.90504
G1 X169.065 Y147.613 E3.9488
G1 X167.251 Y149.621 E3.99207
G1 X165.457 Y151.722 E4.03624
G1 X163.77 Y153.815 E4.07922
G1 X162.11 Y155.998 E4.12307
G1 X160.211 Y158.656 E4.1753
G1 X159.703 Y159.263 E4.18796
G1 X158.688 Y159.994 E4.20796
G1 X157.653 Y160.716 E4.22814
G1 X155.426 Y162.366 E4.27245
G1 X153.331 Y164.016 E4.31509
G1 X151.211 Y165.781 E4.3592
G1 X149.15 Y167.601 E4.40316
G1 X147.174 Y169.446 E4.44638
G1 X145.235 Y171.36 E4.48995
G1 X143.333 Y173.35 E4.53396
G1 X141.519 Y175.36 E4.57725
G1 X139.749 Y177.433 E4.62084
G1 X138.03 Y179.566 E4.66464
G1 X136.37 Y181.752 E4.70852
G1 X134.785 Y183.964 E4.75203
G1 X133.271 Y186.209 E4.79533
G1 X131.794 Y188.538 E4.83942
G1 X130.419 Y190.85 E4.88243
G1 X129.074 Y193.262 E4.92659
G1 X127.813 Y195.686 E4.97028
G1 X126.632 Y198.118 E5.01351
G1 X125.492 Y200.647 E5.05786
G1 X124.447 Y203.155 E5.1013
G1 X123.681 Y205.086 E5.13452
G1 X123.241 Y205.7 E5.1466
G1 X122.889 Y206.06 E5.15465
G1 X122.399 Y206.423 E5.1644
G1 X121.903 Y206.676 E5.1733
G1 X121.364 Y206.849 E5.18235
G1 X120.617 Y206.95 E5.1944
G1 X100.621 Y206.953 E5.51412
G1 X99.669 Y206.936 E5.52934
G1 X96.245 Y206.441 E5.58466
G1 X93.511 Y206.129 E5.62865
G1 X90.78 Y205.895 E5.67248
G1 X87.59 Y205.714 E5.72357
G1 X86.845 Y205.487 E5.73602
G1 X85.935 Y204.949 E5.75292
G1 X85.533 Y204.564 E5.76182
G1 X85.197 Y204.12 E5.77072
G1 X84.913 Y203.578 E5.78051
G1 X84.74 Y203.039 E5.78956
G1 X84.639 Y202.297 E5.80153
G1 X84.635 Y123.553 E7.06057
G0 F18000 X84.975 Y123.553
G1 F2100 X84.935 Y120.752 E7.10536
G1 X84.82 Y118.036 E7.14882
G1 X84.628 Y115.322 E7.19233
G1 X84.353 Y112.548 E7.2369
G1 X84.012 Y109.884 E7.27984
G1 X83.581 Y107.144 E7.32419
G1 X83.079 Y104.409 E7.36865
G1 X83.309 Y101.125 E7.42128
G1 X83.421 Y98.409 E7.46475
G1 X83.457 Y95.648 E7.5089
G1 X83.415 Y92.9 E7.55284
G1 X83.297 Y90.178 E7.5964
G1 X82.982 Y86.081 E7.6621
G1 X83.076 Y85.441 E7.67244
G1 X83.451 Y84.511 E7.68848
G1 X83.92 Y83.893 E7.70088
G1 X84.882 Y82.959 E7.72232
G1 X85.466 Y82.618 E7.73313
G1 X85.935 Y82.437 E7.74117
G1 X86.599 Y82.313 E7.75197
G1 X89.611 Y82.081 E7.80027
G1 X92.317 Y81.793 E7.84378
G1 X95.027 Y81.427 E7.88751
G1 X97.72 Y80.986 E7.93114
G1 X100.671 Y80.419 E7.97919
G1 X101.484 Y80.458 E7.9922
G1 X104.156 Y81.187 E8.03648
G1 X106.839 Y81.841 E8.08064
G1 X109.534 Y82.417 E8.1247
G1 X112.205 Y82.911 E8.16813
G1 X114.886 Y83.328 E8.21151
G1 X117.626 Y83.676 E8.25568
G1 X120.363 Y83.944 E8.29965
G1 X123.081 Y84.134 E8.34321
G1 X125.794 Y84.245 E8.38663
G1 X128.485 Y84.282 E8.42966
G1 X202.863 Y84.282 E9.61888
G1 X203.471 Y84.339 E9.62865
G1 X203.959 Y84.465 E9.63671
G1 X204.843 Y84.938 E9.65274
G1 X205.536 Y85.664 E9.66878
G1 X205.967 Y86.57 E9.68483
G1 X206.09 Y87.292 E9.69654
G1 X206.164 Y88.671 E9.71862
G1 X206.357 Y91.422 E9.76271
G1 X206.63 Y94.177 E9.80698
G1 X206.975 Y96.885 E9.85062
G1 X207.305 Y99.098 E9.8864
G1 X207.306 Y119.805 E10.21748
G1 X207.249 Y120.413 E10.22725
G1 X206.922 Y121.362 E10.24329
G1 X206.651 Y121.786 E10.25134
G1 X205.925 Y122.479 E10.26739
G1 X204.798 Y123.008 E10.28729
G1 X202.253 Y124.034 E10.33117
G1 X199.768 Y125.119 E10.37452
G1 X197.27 Y126.293 E10.41865
G1 X194.822 Y127.532 E10.46252
G1 X192.424 Y128.83 E10.50612
G1 X190.032 Y130.215 E10.55032
G1 X187.734 Y131.632 E10.59348
G1 X185.423 Y133.148 E10.63767
G1 X183.194 Y134.705 E10.68115
G1 X180.964 Y136.358 E10.72553
G1 X178.842 Y138.025 E10.76868
G1 X176.711 Y139.801 E10.81303
G1 X174.665 Y141.603 E10.85662
G1 X172.672 Y143.463 E10.90021
G1 X170.718 Y145.393 E10.94412
G1 X168.819 Y147.378 E10.98805
G1 X166.992 Y149.4 E11.03162
G1 X165.198 Y151.501 E11.07579
G1 X163.499 Y153.609 E11.11908
G1 X161.839 Y155.792 E11.16293
G1 X159.726 Y158.749 E11.22104
G1 X159.189 Y159.214 E11.2324
G1 X158.493 Y159.715 E11.24611
G1 X157.458 Y160.438 E11.26629
G1 X155.224 Y162.093 E11.31075
G1 X153.113 Y163.755 E11.35371
G1 X150.993 Y165.52 E11.39781
G1 X148.918 Y167.352 E11.44207
G1 X146.942 Y169.197 E11.4853
G1 X144.996 Y171.118 E11.52902
G1 X143.087 Y173.115 E11.57319
G1 X141.26 Y175.139 E11.61678
G1 X139.49 Y177.212 E11.66037
G1 X137.759 Y179.36 E11.70448
G1 X136.099 Y181.546 E11.74836
G1 X134.503 Y183.774 E11.79218
G1 X132.989 Y186.019 E11.83548
G1 X131.507 Y188.356 E11.87972
G1 X130.122 Y190.684 E11.92304
G1 X128.777 Y193.096 E11.96719
G1 X127.511 Y195.529 E12.01104
G1 X126.326 Y197.97 E12.05443
G1 X125.182 Y200.507 E12.09893
G1 X124.133 Y203.024 E12.14253
G1 X123.386 Y204.912 E12.17499
G1 X122.998 Y205.462 E12.18575
G1 X122.646 Y205.822 E12.1938
G1 X121.795 Y206.353 E12.20984
G1 X121.318 Y206.512 E12.21788
G1 X120.571 Y206.613 E12.22993
G1 X100.626 Y206.613 E12.54883
G1 X99.718 Y206.599 E12.56335
G1 X96.294 Y206.104 E12.61867
G1 X93.545 Y205.79 E12.66291
G1 X90.809 Y205.557 E12.70681
G1 X87.636 Y205.377 E12.75763
G1 X86.994 Y205.181 E12.76836
G1 X86.542 Y204.961 E12.7764
G1 X85.77 Y204.32 E12.79244
G1 X85.236 Y203.471 E12.80848
G1 X85.077 Y202.993 E12.81653
G1 X84.976 Y202.251 E12.8285
G1 X84.975 Y123.553 E14.0868
G1 F2700 E7.5868
G1 F600 Z0.75
;MESH:IDEX offset calibration_ref.STL
G0 F18000 X86.718 Y103.964 Z0.75
;TYPE:WALL-OUTER
G1 F600 Z0.25
G1 F2100 E14.0868
G1 X88.325 Y101.336 E14.16228
G0 F18000 X88.77 Y101.337
G1 F2100 X88.679 Y100.989 E14.16931
G1 X88.546 Y100.88 E14.17273
G1 X88.413 Y100.989 E14.17614
G1 X88.325 Y101.336 E14.18314
G1 X88.77 Y101.337 E14.19404
G0 F18000 X88.72 Y101.144
G0 X88.77 Y101.337
G1 F2100 X90.374 Y103.964 E14.26931
G1 F2700 E7.76931
G1 F600 Z0.75
G0 F18000 X88.546 Y100.88 Z0.75
G1 F600 Z0.25
G1 F2100 E14.26931
G1 X88.546 Y98.166 E14.33721
G1 F2700 E7.83721
G1 F600 Z0.75
G0 F18000 X93.899 Y103.771 Z0.75
G1 F600 Z0.25
G1 F2100 E14.33721
G1 X95.02 Y101.182 E14.38232
G1 X94.261 Y101.182 E14.39446
G1 X94.11 Y101.03 E14.3983
G1 X94.11 Y98.11 E14.45611
G1 X93.69 Y98.11 E14.4644
G1 X93.69 Y101.03 E14.52221
G1 X93.539 Y101.182 E14.52605
G1 X92.779 Y101.182 E14.5382
G1 X93.899 Y103.771 E14.58331
G0 F18000 X93.978 Y103.588
G0 X93.899 Y102.916
;TYPE:WALL-INNER
G1 F2100 X94.502 Y101.522 E14.60759
G1 X94.09 Y101.468 E14.61423
G1 X93.9 Y101.257 E14.6188
G1 X93.709 Y101.468 E14.62338
G1 X93.296 Y101.522 E14.63004
G1 X93.899 Y102.916 E14.65432
G0 F18000 X93.962 Y101.915
G0 X93.962 Y101.847
G1 F2100 X93.867 Y101.792 E14.65695
G1 X93.868 Y101.902 E14.65959
G1 X93.962 Y101.847 E14.6622
G1 F2700 E8.1622
G1 F600 Z0.75
G0 F18000 X103.84 Y103.488 Z0.75
;TYPE:WALL-OUTER
G1 F600 Z0.25
G1 F2100 E14.6622
G1 X104.18 Y103.148 E14.67308
G1 X86.836 Y85.804 E15.2279
G1 X86.496 Y86.144 E15.23878
G1 X103.84 Y103.488 E15.79359
G0 F18000 X103.981 Y103.347
G1 F2700 E9.29359
G1 F600 Z0.75
G0 F18000 X102.213 Y92.743 Z0.75
G1 F600 Z0.25
G1 F2100 E15.79359
G1 X100.609 Y90.241 E15.86571
G1 X100.394 Y90.044 E15.87389
G1 X100.176 Y90.242 E15.8821
G1 X98.574 Y92.741 E15.95399
G1 F2700 E9.45399
G1 F600 Z0.75
G0 F18000 X98.491 Y86.933 Z0.75
G1 F600 Z0.25
G1 F2100 E15.95399
G1 X100.2 Y89.6 E16.03115
G1 X100.394 Y89.762 E16.03825
G1 X100.586 Y89.6 E16.0453
G1 X102.293 Y86.933 E16.12228
G1 F2700 E9.62228
G1 F600 Z0.75
G0 F18000 X101.106 Y86.085 Z0.75
G1 F600 Z0.25
G1 F2100 E16.12228
G1 X103.697 Y84.963 E16.16743
G1 X101.106 Y83.843 E16.21256
G1 X101.106 Y84.544 E16.22377
G1 X100.936 Y84.754 E16.2286
G1 X98.034 Y84.754 E16.28592
G1 X98.034 Y85.174 E16.29421
G1 X100.936 Y85.174 E16.35153
G1 X101.106 Y85.323 E16.35557
G1 X101.106 Y86.085 E16.36775
G0 F18000 X101.289 Y86.006
G0 X101.446 Y85.568
;TYPE:WALL-INNER
G1 F2100 X102.84 Y84.964 E16.39204
G1 X101.446 Y84.36 E16.41633
G1 X101.392 Y84.774 E16.42301
G1 X101.296 Y84.906 E16.42562
G1 X101.154 Y84.964 E16.42807
G1 X101.296 Y85.022 E16.43052
G1 X101.392 Y85.154 E16.43313
G1 X101.446 Y85.568 E16.43981
G0 F18000 X101.834 Y84.964
G1 F2100 X101.739 Y84.909 E16.44243
G1 X101.74 Y85.019 E16.44506
G1 X101.834 Y84.964 E16.44766
G1 F2700 E9.94766
G1 F600 Z0.75
G0 F18000 X125.23 Y137.065 Z0.75
;TYPE:WALL-OUTER
G1 F600 Z0.25
G1 F2100 E16.44766
G1 X124.862 Y137.002 E16.45472
G1 X124.401 Y136.787 E16.46469
G1 X123.886 Y136.278 E16.47934
G1 X123.615 Y135.629 E16.49399
G1 X123.482 Y134.954 E16.50861
G1 X123.43 Y134.317 E16.52202
G1 X123.424 Y133.548 E16.53815
G1 X123.457 Y132.927 E16.55125
G1 X123.593 Y132.106 E16.5687
G1 X123.798 Y131.579 E16.58035
G1 X124.201 Y131.03 E16.59399
G1 X124.487 Y130.811 E16.60116
G1 X124.887 Y130.639 E16.60963
G1 X125.221 Y130.592 E16.61604
G1 X125.77 Y130.68 E16.62655
G1 X126.258 Y130.94 E16.63729
G1 X126.692 Y131.42 E16.6505
G1 X126.999 Y132.125 E16.66684
G1 X127.175 Y132.926 E16.68443
G1 X127.209 Y133.776 E16.70251
G1 X127.185 Y134.511 E16.71808
G1 X127.062 Y135.315 E16.7354
G1 X126.745 Y136.112 E16.75327
G1 X126.453 Y136.521 E16.76334
G1 X125.886 Y136.928 E16.77709
G1 X125.23 Y137.065 E16.79001
G0 F18000 X125.033 Y137.032
G0 X125.197 Y137.469
G1 F2100 X126.072 Y137.302 E16.80719
G1 X126.495 Y137.051 E16.81709
G1 X127.011 Y136.537 E16.83233
G1 X127.363 Y135.84 E16.84907
G1 X127.536 Y135.309 E16.86121
G1 X127.635 Y134.545 E16.87776
G1 X127.661 Y133.899 E16.89151
G1 X127.646 Y133.257 E16.90522
G1 X127.567 Y132.575 E16.91994
G1 X127.424 Y131.943 E16.93396
G1 X127.164 Y131.369 E16.94753
G1 X126.782 Y130.847 E16.96109
G1 X126.498 Y130.591 E16.96886
G1 X126.084 Y130.36 E16.97831
G1 X125.37 Y130.192 E16.99263
G1 X125.03 Y130.197 E16.99915
G1 X124.463 Y130.346 E17.01073
G1 X124.102 Y130.548 E17.01914
G1 X123.58 Y131.066 E17.03446
G1 X123.196 Y131.814 E17.05241
G1 X123.033 Y132.69 E17.07143
G1 X122.977 Y133.413 E17.08685
G1 X122.974 Y134.117 E17.10181
G1 X123.039 Y135.015 E17.12086
G1 X123.183 Y135.781 E17.13743
G1 X123.445 Y136.36 E17.15082
G1 X123.801 Y136.838 E17.16321
G1 X124.118 Y137.114 E17.1719
G1 X124.515 Y137.324 E17.18099
G1 X125.197 Y137.469 E17.19456
G0 F18000 X125.393 Y137.432
G1 F2700 E10.69456
G1 F600 Z0.75
G0 F18000 X129.926 Y131.256 Z0.75
G1 F600 Z0.25
G1 F2100 E17.19456
G1 X130.194 Y131.1 E17.19952
G1 X130.34 Y130.839 E17.2043
G1 X130.279 Y130.533 E17.20929
G1 X130.107 Y130.35 E17.21331
G1 X129.863 Y130.261 E17.21746
G1 X129.459 Y130.333 E17.22402
G1 X129.281 Y130.544 E17.22843
G1 X129.256 Y130.925 E17.23454
G1 X129.411 Y131.15 E17.23891
G1 X129.652 Y131.268 E17.2432
G1 X129.926 Y131.256 E17.24758
G0 F18000 X130.098 Y131.156
G0 X129.979 Y130.731
;TYPE:WALL-INNER
G1 F2100 X129.917 Y130.636 E17.24933
G1 X129.664 Y130.607 E17.25326
G1 X129.577 Y130.803 E17.25657
G1 X129.722 Y130.931 E17.25955
G1 X129.947 Y130.857 E17.2632
G1 X129.979 Y130.731 E17.26521
G1 F2700 E10.76521
G1 F600 Z0.75
G0 F18000 X134.257 Y137.23 Z0.75
;TYPE:WALL-OUTER
G1 F600 Z0.25
G1 F2100 E17.26521
G1 X134.258 Y130.398 E17.41461
G1 X133.806 Y130.398 E17.42421
G1 X133.805 Y136.819 E17.56462
G1 X133.615 Y136.874 E17.56875
G1 X132.81 Y136.875 E17.5842
G1 X133.036 Y137.281 E17.59307
G1 X133.65 Y137.28 E17.60485
G1 X134.257 Y137.23 E17.61757
G0 F18000 X134.257 Y137.03
G1 F2700 E11.11757
G1 F600 Z0.75
G0 F18000 X138.218 Y135.37 Z0.75
G1 F600 Z0.25
G1 F2100 E17.61757
G1 X138.218 Y134.788 E17.62994
G1 X138.359 Y134.64 E17.63375
G1 X138.575 Y134.548 E17.63823
G1 X138.722 Y134.579 E17.6419
G1 X138.258 Y133.414 E17.67286
G1 X138.218 Y132.738 E17.68773
G1 X138.218 Y130.398 E17.73747
G1 X137.766 Y130.398 E17.74708
G1 X137.767 Y132.756 E17.7972
G1 X137.781 Y133.455 E17.81256
G1 X137.695 Y134.121 E17.82642
G1 X137.766 Y134.788 E17.83979
G1 X137.766 Y135.37 E17.85217
G1 X138.218 Y135.37 E17.86177
G0 F18000 X138.218 Y135.17
G0 X138.755 Y134.616
G1 F2100 X138.722 Y134.579 E17.8631
G1 F2700 E11.3631
G1 F600 Z0.75
G0 F18000 X143.976 Y135.459 Z0.75
G1 F600 Z0.25
G1 F2100 E17.8631
G1 X144.448 Y135.302 E17.87283
G1 X144.754 Y135.093 E17.88043
G1 X145.128 Y134.669 E17.89234
G1 X145.319 Y133.976 E17.90765
G1 X145.378 Y133.258 E17.923
G1 X145.379 Y130.397 E17.98368
G1 X144.929 Y130.397 E17.9932
G1 X144.924 Y133.338 E18.0553
G1 X144.849 Y134.142 E18.07216
G1 X144.663 Y134.549 E18.08138
G1 X144.268 Y134.914 E18.09225
G1 X143.842 Y135.06 E18.10108
G1 X143.332 Y135.063 E18.11068
G1 X142.785 Y134.847 E18.12102
G1 X142.497 Y134.617 E18.12691
G1 X142.1 Y134.054 E18.13741
G1 X141.84 Y133.253 E18.15341
G1 X141.798 Y132.575 E18.16836
G1 X141.798 Y130.398 E18.21464
G1 X141.346 Y130.398 E18.22424
G1 X141.346 Y132.593 E18.2709
G1 X141.36 Y133.272 E18.28585
G1 X141.275 Y133.62 E18.29279
G1 X141.222 Y134.191 E18.30306
G1 X141.09 Y134.501 E18.30978
G1 X140.758 Y134.862 E18.3197
G1 X140.029 Y135.083 E18.33474
G1 X139.55 Y135.021 E18.34381
G1 X138.755 Y134.616 E18.36399
G1 X138.833 Y135.003 E18.37316
G1 X139.065 Y135.232 E18.37947
G1 X139.43 Y135.394 E18.38695
G1 X140.073 Y135.486 E18.39914
G1 X140.617 Y135.389 E18.41008
G1 X141.06 Y135.182 E18.42015
G1 X141.377 Y134.884 E18.42927
G1 X141.613 Y134.347 E18.44136
G1 X141.947 Y134.342 E18.44729
G1 X142.352 Y134.97 E18.45931
G1 X142.854 Y135.305 E18.46981
G1 X143.283 Y135.453 E18.47814
G1 X143.976 Y135.459 E18.49111
G0 F18000 X144.165 Y135.396
G1 F2700 E11.99111
G1 F600 Z0.75
G0 F18000 X141.635 Y133.927 Z0.75
;TYPE:WALL-INNER
G1 F600 Z0.25
G1 F2100 E18.49111
G1 X141.617 Y133.671 E18.49605
G1 F2700 E11.99605
G1 F600 Z0.75
G0 F18000 X138.21 Y134.263 Z0.75
G1 F600 Z0.25
G1 F2100 E18.49605
G1 X138.111 Y134.206 E18.49889
G1 X138.111 Y134.32 E18.50172
G1 X138.21 Y134.263 E18.50456
G1 F2700 E12.00456
G1 F600 Z0.75
G0 F18000 X153.404 Y135.482 Z0.75
;TYPE:WALL-OUTER
G1 F600 Z0.25
G1 F2100 E18.50456
G1 X153.87 Y135.386 E18.51387
G1 X154.499 Y134.974 E18.52914
G1 X154.747 Y134.616 E18.53828
G1 X154.874 Y134.3 E18.54544
G1 X154.959 Y133.777 E18.55667
G1 X154.99 Y133.264 E18.56769
G1 X154.991 Y130.397 E18.6285
G1 X154.541 Y130.397 E18.63802
G1 X154.536 Y133.343 E18.70037
G1 X154.442 Y134.204 E18.71853
G1 X154.154 Y134.699 E18.73043
G1 X153.839 Y134.936 E18.73842
G1 X153.385 Y135.073 E18.7477
G1 X152.947 Y135.062 E18.75594
G1 X152.392 Y134.854 E18.76645
G1 X151.916 Y134.386 E18.77744
G1 X151.523 Y133.933 E18.78942
G1 X151.427 Y133.072 E18.80939
G1 X151.411 Y132.372 E18.82447
G1 X151.411 Y130.397 E18.86626
G1 X150.961 Y130.397 E18.87579
G1 X150.964 Y133.046 E18.93259
G1 X150.961 Y133.896 E18.9531
G1 X150.724 Y134.461 E18.9673
G1 X150.361 Y134.862 E18.97804
G1 X150.05 Y135.013 E18.98488
G1 X149.616 Y135.085 E18.99336
G1 X149.3 Y135.052 E18.99928
G1 X148.858 Y134.891 E19.00788
G1 X148.353 Y134.402 E19.01929
G1 X148.079 Y133.951 E19.02723
G1 X147.87 Y133.414 E19.03837
G1 X147.83 Y132.738 E19.05324
G1 X147.83 Y130.398 E19.10298
G1 X147.378 Y130.398 E19.11259
G1 X147.379 Y132.756 E19.16271
G1 X147.393 Y133.455 E19.17806
G1 X147.307 Y134.123 E19.19197
G1 X147.378 Y134.796 E19.20546
G1 X147.378 Y135.37 E19.21766
G1 X147.83 Y135.37 E19.22727
G1 X147.83 Y134.796 E19.23947
G1 X147.972 Y134.648 E19.24329
G1 X148.169 Y134.635 E19.24626
G1 X148.403 Y134.981 E19.25286
G1 X148.675 Y135.238 E19.25955
G1 X149.311 Y135.456 E19.27197
G1 X149.684 Y135.488 E19.27905
G1 X150.153 Y135.42 E19.28825
G1 X150.721 Y135.145 E19.30107
G1 X150.987 Y134.881 E19.30901
G1 X151.294 Y134.209 E19.32579
G1 X151.428 Y134.188 E19.32921
G1 X151.727 Y134.663 E19.34104
G1 X152.154 Y135.133 E19.35146
G1 X152.571 Y135.357 E19.35987
G1 X153.026 Y135.471 E19.36861
G1 X153.404 Y135.482 E19.37583
G0 F18000 X153.599 Y135.442
G1 F2700 E12.87583
G1 F600 Z0.75
G0 F18000 X147.824 Y134.269 Z0.75
;TYPE:WALL-INNER
G1 F600 Z0.25
G1 F2100 E19.37583
G1 X147.725 Y134.212 E19.37869
G1 X147.725 Y134.326 E19.38154
G1 X147.824 Y134.269 E19.3844
G1 F2700 E12.8844
G1 F600 Z0.75
G0 F18000 X147.837 Y123.765 Z0.75
;TYPE:WALL-OUTER
G1 F600 Z0.25
G1 F2100 E19.3844
G1 X147.837 Y123.391 E19.39097
G1 X145.451 Y123.391 E19.43294
G1 X145.451 Y123.765 E19.43952
G1 X147.837 Y123.765 E19.48148
G0 F18000 X147.837 Y123.565
G1 F2700 E12.98148
G1 F600 Z0.75
G0 F18000 X167.261 Y126.631 Z0.75
G1 F600 Z0.25
G1 F2100 E19.48148
G1 X167.679 Y126.631 E19.4897
G1 X167.679 Y125.636 E19.51094
G1 X167.679 Y124.641 E19.53551
G1 X168.696 Y124.641 E19.56009
G1 X169.713 Y124.641 E19.58022
G1 X169.713 Y124.267 E19.5868
G1 X168.696 Y124.267 E19.60694
G1 X167.679 Y124.267 E19.63152
G1 X167.679 Y123.272 E19.65608
G1 X167.679 Y122.277 E19.67733
G1 X167.261 Y122.277 E19.68554
G1 X167.261 Y123.272 E19.70679
G1 X167.261 Y124.267 E19.73135
G1 X166.244 Y124.267 E19.75593
G1 X165.227 Y124.267 E19.77607
G1 X165.227 Y124.641 E19.78265
G1 X166.244 Y124.641 E19.80278
G1 X167.261 Y124.641 E19.82736
G1 X167.261 Y125.636 E19.85193
G1 X167.261 Y126.631 E19.87317
G0 F18000 X167.461 Y126.631
G1 F2700 E13.37317
G1 F600 Z0.75
G0 F18000 X157.116 Y156.457 Z0.75
G1 F600 Z0.25
G1 F2100 E19.87317
G1 X157.149 Y155.954 E19.88258
G1 X157.15 Y121.206 E20.50517
G1 X156.77 Y121.206 E20.51196
G1 X156.77 Y132.83 E20.72132
G1 X156.77 Y144.454 E20.93341
G1 X156.769 Y156.078 E21.14824
G1 X145.147 Y156.077 E21.36303
G1 X133.525 Y156.077 E21.57509
G1 X121.903 Y156.077 E21.78441
G1 X121.902 Y156.458 E21.79122
G1 X127.771 Y156.458 E21.89693
G1 X133.64 Y156.458 E22.00402
G1 X139.509 Y156.458 E22.11248
G1 X145.378 Y156.458 E22.22261
G1 X151.247 Y156.458 E22.33411
G1 X157.116 Y156.457 E22.44699
G0 F18000 X157.129 Y156.258
G1 F2700 E15.94699
G1 F600 Z0.75
G0 F18000 X127.253 Y169.569 Z0.75
G1 F600 Z0.25
G1 F2100 E22.44699
G1 X127.253 Y168.552 E22.46713
G1 X127.253 Y167.535 E22.49171
G1 X128.248 Y167.535 E22.51627
G1 X129.243 Y167.535 E22.53752
G1 X129.243 Y167.117 E22.54573
G1 X128.248 Y167.117 E22.56698
G1 X127.253 Y167.117 E22.59154
G1 X127.253 Y166.1 E22.61613
G1 X127.253 Y165.083 E22.63626
G1 X126.879 Y165.083 E22.64284
G1 X126.879 Y166.1 E22.66297
G1 X126.879 Y167.117 E22.68756
G1 X125.884 Y167.117 E22.71212
G1 X124.889 Y167.117 E22.73336
G1 X124.889 Y167.535 E22.74158
G1 X125.884 Y167.535 E22.76282
G1 X126.879 Y167.535 E22.78739
G1 X126.879 Y168.552 E22.81197
G1 X126.879 Y169.569 E22.83211
G1 X127.253 Y169.569 E22.83868
G0 F18000 X127.253 Y169.369
G1 F2700 E16.33868
G1 F600 Z0.75
G0 F18000 X126.377 Y147.777 Z0.75
G1 F600 Z0.25
G1 F2100 E22.83868
G1 X126.377 Y145.391 E22.88065
G1 X126.003 Y145.391 E22.88723
G1 X126.003 Y147.777 E22.92919
G1 X126.377 Y147.777 E22.93577
G0 F18000 X126.377 Y147.577
G1 F2700 E16.43577
G1 F600 Z0.75
G0 F18000 X103.456 Y156.268 Z0.75
G1 F600 Z0.25
G1 F2100 E22.93577
G1 X88.779 Y156.268 E23.32228
G1 F2700 E16.82228
G1 F600 Z0.75
G0 F18000 X88.424 Y198.515 Z0.75
G1 F600 Z0.25
G1 F2100 E23.32228
G1 X88.569 Y198.252 E23.32942
G1 X88.779 Y198.152 E23.33494
G1 X88.569 Y198.052 E23.34046
G1 X88.569 Y194.444 E23.41682
G1 X88.779 Y194.344 E23.42234
G1 X88.569 Y194.244 E23.42786
G1 X88.569 Y190.636 E23.50422
G1 X88.779 Y190.536 E23.50974
G1 X88.569 Y190.436 E23.51526
G1 X88.569 Y186.828 E23.59162
G1 X88.779 Y186.728 E23.59714
G1 X88.569 Y186.628 E23.60266
G1 X88.569 Y183.02 E23.67901
G1 X88.779 Y182.92 E23.68454
G1 X88.569 Y182.82 E23.69006
G1 X88.569 Y179.212 E23.76641
G1 X88.779 Y179.112 E23.77194
G1 X88.569 Y179.012 E23.77746
G1 X88.564 Y175.411 E23.85367
G1 X88.784 Y175.306 E23.85947
G1 X88.571 Y175.204 E23.86509
G1 X88.564 Y171.604 E23.94093
G1 X88.784 Y171.498 E23.94674
G1 X88.571 Y171.396 E23.95236
G1 X88.564 Y167.796 E24.02821
G1 X88.784 Y167.69 E24.03402
G1 X88.571 Y167.588 E24.03964
G1 X88.569 Y163.984 E24.11573
G1 X88.779 Y163.884 E24.12126
G1 X88.569 Y163.784 E24.12678
G1 X88.569 Y160.176 E24.20313
G1 X88.779 Y160.076 E24.20866
G1 X88.569 Y159.976 E24.21418
G1 X88.569 Y156.368 E24.29053
G1 X88.779 Y156.268 E24.29606
G1 X88.569 Y156.168 E24.30158
G1 X88.569 Y152.56 E24.37793
G1 X88.779 Y152.46 E24.38346
G1 X88.569 Y152.36 E24.38898
G1 X88.569 Y148.752 E24.46533
G1 X88.779 Y148.652 E24.47086
G1 X88.569 Y148.552 E24.47638
G1 X88.569 Y144.944 E24.55273
G1 X88.779 Y144.844 E24.55825
G1 X88.569 Y144.744 E24.56378
G1 X88.569 Y141.136 E24.64013
G1 X88.779 Y141.036 E24.64565
G1 X88.569 Y140.936 E24.65118
G1 X88.564 Y137.335 E24.72738
G1 X88.784 Y137.23 E24.73318
G1 X88.571 Y137.128 E24.7388
G1 X88.564 Y133.528 E24.81465
G1 X88.784 Y133.422 E24.82046
G1 X88.571 Y133.32 E24.82608
G1 X88.564 Y129.72 E24.90192
G1 X88.784 Y129.614 E24.90773
G1 X88.571 Y129.512 E24.91335
G1 X88.569 Y125.908 E24.98945
G1 X88.779 Y125.808 E24.99497
G1 X88.569 Y125.708 E25.0005
G1 X88.569 Y122.1 E25.07685
G1 X88.779 Y122 E25.08237
G1 X88.569 Y121.9 E25.0879
G1 X88.569 Y118.292 E25.16425
G1 X88.779 Y118.192 E25.16977
G1 X88.569 Y118.092 E25.1753
G1 X88.569 Y114.484 E25.25165
G1 X88.779 Y114.384 E25.25717
G1 X88.569 Y114.284 E25.2627
G1 X88.569 Y110.676 E25.33905
G1 X88.779 Y110.576 E25.34457
G1 X88.569 Y110.476 E25.3501
G1 X88.567 Y108.692 E25.38634
G1 X88.564 Y106.908 E25.41948
G1 X91.284 Y106.909 E25.46706
G1 X94.004 Y106.909 E25.51336
G1 X96.724 Y106.909 E25.55826
G1 X99.444 Y106.908 E25.60188
G1 X102.164 Y106.908 E25.64422
G1 X104.884 Y106.908 E25.68515
G1 X107.604 Y106.907 E25.7248
G1 X107.602 Y102.148 E25.79396
G1 X107.602 Y97.389 E25.8649
G1 X107.602 Y92.63 E25.93763
G1 X107.603 Y87.871 E26.01216
G1 X111.158 Y87.872 E26.07034
G1 X111.268 Y88.105 E26.0759
G1 X111.378 Y87.873 E26.08143
G1 X114.966 Y87.872 E26.14487
G1 X115.076 Y88.105 E26.15066
G1 X115.186 Y87.873 E26.15619
G1 X118.774 Y87.872 E26.21964
G1 X118.884 Y88.105 E26.22543
G1 X118.994 Y87.873 E26.23096
G1 X122.582 Y87.872 E26.2944
G1 X122.692 Y88.105 E26.30019
G1 X122.802 Y87.873 E26.30572
G1 X126.39 Y87.872 E26.36917
G1 X126.5 Y88.105 E26.37496
G1 X126.61 Y87.873 E26.38049
G1 X130.198 Y87.872 E26.44393
G1 X130.308 Y88.105 E26.44972
G1 X130.418 Y87.873 E26.45525
G1 X134.006 Y87.872 E26.5187
G1 X134.116 Y88.105 E26.52449
G1 X134.226 Y87.873 E26.53002
G1 X137.808 Y87.872 E26.59335
G1 X137.922 Y88.111 E26.59932
G1 X138.036 Y87.873 E26.60503
G1 X141.616 Y87.872 E26.66799
G1 X141.73 Y88.111 E26.67394
G1 X141.844 Y87.873 E26.67965
G1 X145.424 Y87.872 E26.74262
G1 X145.538 Y88.111 E26.74857
G1 X145.652 Y87.873 E26.75428
G1 X149.234 Y87.872 E26.81728
G1 X149.344 Y88.105 E26.82306
G1 X149.454 Y87.873 E26.82859
G1 X153.042 Y87.872 E26.89203
G1 X153.152 Y88.105 E26.89782
G1 X153.262 Y87.873 E26.90335
G1 X156.85 Y87.872 E26.96679
G1 X156.96 Y88.105 E26.97259
G1 X157.07 Y87.873 E26.97812
G1 X160.658 Y87.872 E27.04156
G1 X160.768 Y88.105 E27.04735
G1 X160.878 Y87.873 E27.05288
G1 X164.466 Y87.872 E27.11632
G1 X164.576 Y88.105 E27.12212
G1 X164.686 Y87.873 E27.12765
G1 X168.274 Y87.872 E27.19109
G1 X168.384 Y88.105 E27.19688
G1 X168.494 Y87.873 E27.20241
G1 X172.082 Y87.872 E27.26585
G1 X172.192 Y88.105 E27.27165
G1 X172.302 Y87.873 E27.27718
G1 X175.884 Y87.872 E27.34051
G1 X175.998 Y88.111 E27.34648
G1 X176.112 Y87.873 E27.35219
G1 X179.692 Y87.872 E27.41515
G1 X179.806 Y88.111 E27.4211
G1 X179.92 Y87.873 E27.42681
G1 X183.5 Y87.872 E27.48978
G1 X183.614 Y88.111 E27.49573
G1 X183.728 Y87.873 E27.50144
G1 X187.31 Y87.872 E27.56444
G1 X187.42 Y88.105 E27.57022
G1 X187.53 Y87.873 E27.57575
G1 X191.118 Y87.872 E27.63919
G1 X191.228 Y88.105 E27.64498
G1 X191.338 Y87.873 E27.65051
G1 X194.926 Y87.872 E27.71395
G1 X195.036 Y88.105 E27.71974
G1 X195.146 Y87.873 E27.72528
G1 X198.716 Y87.872 E27.78706
G1 X198.844 Y88.105 E27.79293
G1 X199.081 Y87.767 E27.80318
G1 X199.172 Y87.732 E27.8056
G1 X198.564 Y87.592 E27.81793
G1 X195.162 Y87.593 E27.86368
G1 X195.036 Y87.669 E27.86619
G1 X194.903 Y87.592 E27.86882
G1 X191.354 Y87.593 E27.91772
G1 X191.228 Y87.669 E27.92022
G1 X191.095 Y87.592 E27.92285
G1 X187.546 Y87.593 E27.97175
G1 X187.42 Y87.669 E27.97426
G1 X187.287 Y87.592 E27.97689
G1 X183.738 Y87.593 E28.02596
G1 X183.614 Y87.667 E28.02842
G1 X183.483 Y87.592 E28.031
G1 X179.93 Y87.593 E28.08012
G1 X179.806 Y87.667 E28.08258
G1 X179.675 Y87.592 E28.08516
G1 X176.122 Y87.593 E28.13429
G1 X175.998 Y87.667 E28.13675
G1 X175.867 Y87.592 E28.13933
G1 X172.318 Y87.593 E28.1884
G1 X172.192 Y87.669 E28.1909
G1 X172.059 Y87.592 E28.19353
G1 X168.51 Y87.593 E28.24243
G1 X168.384 Y87.669 E28.24494
G1 X168.251 Y87.592 E28.24757
G1 X164.702 Y87.593 E28.29647
G1 X164.576 Y87.669 E28.29897
G1 X164.443 Y87.592 E28.30161
G1 X160.894 Y87.593 E28.35051
G1 X160.768 Y87.669 E28.35301
G1 X160.635 Y87.592 E28.35564
G1 X157.086 Y87.593 E28.40454
G1 X156.96 Y87.669 E28.40705
G1 X156.827 Y87.592 E28.40968
G1 X153.278 Y87.593 E28.45858
G1 X153.152 Y87.669 E28.46108
G1 X153.019 Y87.592 E28.46371
G1 X149.47 Y87.593 E28.51262
G1 X149.344 Y87.669 E28.51512
G1 X149.211 Y87.592 E28.51775
G1 X145.662 Y87.593 E28.56682
G1 X145.538 Y87.667 E28.56928
G1 X145.407 Y87.592 E28.57186
G1 X141.854 Y87.593 E28.62098
G1 X141.73 Y87.667 E28.62344
G1 X141.599 Y87.592 E28.62603
G1 X138.046 Y87.593 E28.67515
G1 X137.922 Y87.667 E28.67761
G1 X137.791 Y87.592 E28.68019
G1 X134.242 Y87.593 E28.72926
G1 X134.116 Y87.669 E28.73176
G1 X133.983 Y87.592 E28.73439
G1 X130.434 Y87.593 E28.78329
G1 X130.308 Y87.669 E28.7858
G1 X130.175 Y87.592 E28.78843
G1 X126.626 Y87.593 E28.83733
G1 X126.5 Y87.669 E28.83984
G1 X126.367 Y87.592 E28.84247
G1 X122.818 Y87.593 E28.89137
G1 X122.692 Y87.669 E28.89387
G1 X122.559 Y87.592 E28.8965
G1 X119.01 Y87.593 E28.9454
G1 X118.884 Y87.669 E28.94791
G1 X118.751 Y87.592 E28.95054
G1 X115.202 Y87.593 E28.99944
G1 X115.076 Y87.669 E29.00195
G1 X114.943 Y87.592 E29.00458
G1 X111.394 Y87.593 E29.05348
G1 X111.268 Y87.669 E29.05598
G1 X111.135 Y87.592 E29.0586
G1 X107.321 Y87.593 E29.11205
G1 X107.32 Y106.627 E29.38416
G1 X88.284 Y106.629 E29.65092
G1 X88.285 Y110.435 E29.70319
G1 X88.369 Y110.576 E29.70604
G1 X88.284 Y110.723 E29.70899
G1 X88.285 Y114.243 E29.75666
G1 X88.369 Y114.384 E29.75951
G1 X88.284 Y114.531 E29.76247
G1 X88.285 Y118.051 E29.81014
G1 X88.369 Y118.192 E29.81299
G1 X88.284 Y118.339 E29.81594
G1 X88.285 Y121.859 E29.86362
G1 X88.369 Y122 E29.86646
G1 X88.284 Y122.147 E29.86942
G1 X88.285 Y125.667 E29.91709
G1 X88.369 Y125.808 E29.91994
G1 X88.284 Y125.955 E29.92289
G1 X88.285 Y129.475 E29.9709
G1 X88.367 Y129.614 E29.97369
G1 X88.284 Y129.76 E29.97661
G1 X88.285 Y133.283 E30.02466
G1 X88.367 Y133.422 E30.02745
G1 X88.284 Y133.568 E30.03037
G1 X88.285 Y137.091 E30.07842
G1 X88.367 Y137.23 E30.08121
G1 X88.284 Y137.376 E30.08414
G1 X88.285 Y140.895 E30.13213
G1 X88.369 Y141.036 E30.13497
G1 X88.284 Y141.183 E30.13793
G1 X88.285 Y144.703 E30.1856
G1 X88.369 Y144.844 E30.18845
G1 X88.284 Y144.991 E30.1914
G1 X88.285 Y148.511 E30.23908
G1 X88.369 Y148.652 E30.24193
G1 X88.284 Y148.799 E30.24488
G1 X88.285 Y152.319 E30.29255
G1 X88.369 Y152.46 E30.2954
G1 X88.284 Y152.607 E30.29836
G1 X88.285 Y156.127 E30.34603
G1 X88.369 Y156.268 E30.34888
G1 X88.284 Y156.415 E30.35183
G1 X88.285 Y159.935 E30.39951
G1 X88.369 Y160.076 E30.40235
G1 X88.284 Y160.223 E30.40531
G1 X88.285 Y163.743 E30.45298
G1 X88.369 Y163.884 E30.45583
G1 X88.284 Y164.031 E30.45879
G1 X88.285 Y167.551 E30.50679
G1 X88.367 Y167.69 E30.50958
G1 X88.284 Y167.836 E30.5125
G1 X88.285 Y171.359 E30.56055
G1 X88.367 Y171.498 E30.56334
G1 X88.284 Y171.644 E30.56627
G1 X88.285 Y175.167 E30.61431
G1 X88.367 Y175.306 E30.6171
G1 X88.284 Y175.452 E30.62003
G1 X88.285 Y178.971 E30.66802
G1 X88.369 Y179.112 E30.67086
G1 X88.284 Y179.259 E30.67382
G1 X88.285 Y182.779 E30.72149
G1 X88.369 Y182.92 E30.72434
G1 X88.284 Y183.067 E30.7273
G1 X88.285 Y186.587 E30.77497
G1 X88.369 Y186.728 E30.77782
G1 X88.284 Y186.875 E30.78077
G1 X88.285 Y190.395 E30.82844
G1 X88.369 Y190.536 E30.83129
G1 X88.284 Y190.683 E30.83425
G1 X88.285 Y194.203 E30.88192
G1 X88.369 Y194.344 E30.88477
G1 X88.284 Y194.491 E30.88771
G1 X88.285 Y198.11 E30.93842
G1 X88.369 Y198.152 E30.9401
G1 X88.424 Y198.515 E30.94882
G0 F18000 X88.52 Y198.34
G0 X88.424 Y198.515
G1 F2100 X88.426 Y201.728 E31.03374
G1 X88.472 Y201.912 E31.03918
G1 X88.704 Y201.96 E31.04595
G1 X98.444 Y201.96 E31.30245
G1 F2700 E24.80245
G1 F600 Z0.75
G0 F18000 X98.444 Y198.152 Z0.75
G1 F600 Z0.25
G1 F2100 E31.30245
G1 X88.779 Y198.152 E31.55698
G1 F2700 E25.05698
G1 F600 Z0.75
G0 F18000 X88.779 Y194.344 Z0.75
G1 F600 Z0.25
G1 F2100 E31.55698
G1 X103.456 Y194.344 E31.94349
G1 F2700 E25.44349
G1 F600 Z0.75
G0 F18000 X98.444 Y190.536 Z0.75
G1 F600 Z0.25
G1 F2100 E31.94349
G1 X88.779 Y190.536 E32.19802
G1 F2700 E25.69802
G1 F600 Z0.75
G0 F18000 X88.779 Y186.728 Z0.75
G1 F600 Z0.25
G1 F2100 E32.19802
G1 X98.444 Y186.728 E32.45254
G1 F2700 E25.95254
G1 F600 Z0.75
G0 F18000 X98.444 Y182.92 Z0.75
G1 F600 Z0.25
G1 F2100 E32.45254
G1 X88.779 Y182.92 E32.70707
G1 F2700 E26.20707
G1 F600 Z0.75
G0 F18000 X88.779 Y179.112 Z0.75
G1 F600 Z0.25
G1 F2100 E32.70707
G1 X98.444 Y179.112 E32.9616
G1 F2700 E26.4616
G1 F600 Z0.75
G0 F18000 X103.454 Y175.306 Z0.75
G1 F600 Z0.25
G1 F2100 E32.9616
G1 X88.784 Y175.306 E33.35069
G1 F2700 E26.85069
G1 F600 Z0.75
G0 F18000 X88.784 Y171.498 Z0.75
G1 F600 Z0.25
G1 F2100 E33.35069
G1 X98.442 Y171.498 E33.60684
G1 F2700 E27.10684
G1 F600 Z0.75
G0 F18000 X98.442 Y167.69 Z0.75
G1 F600 Z0.25
G1 F2100 E33.60684
G1 X88.784 Y167.69 E33.863
G1 F2700 E27.363
G1 F600 Z0.75
G0 F18000 X88.779 Y163.884 Z0.75
G1 F600 Z0.25
G1 F2100 E33.863
G1 X98.444 Y163.884 E34.11753
G1 F2700 E27.61753
G1 F600 Z0.75
G0 F18000 X98.444 Y160.076 Z0.75
G1 F600 Z0.25
G1 F2100 E34.11753
G1 X88.779 Y160.076 E34.37205
G1 F2700 E27.87205
G1 F600 Z0.75
G0 F18000 X88.779 Y152.46 Z0.75
G1 F600 Z0.25
G1 F2100 E34.37205
G1 X98.444 Y152.46 E34.62658
G1 F2700 E28.12658
G1 F600 Z0.75
G0 F18000 X98.444 Y148.652 Z0.75
G1 F600 Z0.25
G1 F2100 E34.62658
G1 X88.779 Y148.652 E34.88111
G1 F2700 E28.38111
G1 F600 Z0.75
G0 F18000 X88.779 Y144.844 Z0.75
G1 F600 Z0.25
G1 F2100 E34.88111
G1 X98.444 Y144.844 E35.13563
G1 F2700 E28.63563
G1 F600 Z0.75
G0 F18000 X98.444 Y141.036 Z0.75
G1 F600 Z0.25
G1 F2100 E35.13563
G1 X88.779 Y141.036 E35.39016
G1 F2700 E28.89016
G1 F600 Z0.75
G0 F18000 X88.784 Y137.23 Z0.75
G1 F600 Z0.25
G1 F2100 E35.39016
G1 X103.454 Y137.23 E35.77925
G1 F2700 E29.27925
G1 F600 Z0.75
G0 F18000 X98.442 Y133.422 Z0.75
G1 F600 Z0.25
G1 F2100 E35.77925
G1 X88.784 Y133.422 E36.03541
G1 F2700 E29.53541
G1 F600 Z0.75
G0 F18000 X88.784 Y129.614 Z0.75
G1 F600 Z0.25
G1 F2100 E36.03541
G1 X98.442 Y129.614 E36.29156
G1 F2700 E29.79156
G1 F600 Z0.75
G0 F18000 X98.444 Y125.808 Z0.75
G1 F600 Z0.25
G1 F2100 E36.29156
G1 X88.779 Y125.808 E36.54609
G1 F2700 E30.04609
G1 F600 Z0.75
G0 F18000 X88.779 Y122 Z0.75
G1 F600 Z0.25
G1 F2100 E36.54609
G1 X98.444 Y122 E36.80061
G1 F2700 E30.30061
G1 F600 Z0.75
G0 F18000 X103.456 Y118.192 Z0.75
G1 F600 Z0.25
G1 F2100 E36.80061
G1 X88.779 Y118.192 E37.18713
G1 F2700 E30.68713
G1 F600 Z0.75
G0 F18000 X88.779 Y114.384 Z0.75
G1 F600 Z0.25
G1 F2100 E37.18713
G1 X98.444 Y114.384 E37.44166
G1 F2700 E30.94166
G1 F600 Z0.75
G0 F18000 X98.444 Y110.576 Z0.75
G1 F600 Z0.25
G1 F2100 E37.44166
G1 X88.779 Y110.576 E37.69618
G1 F2700 E31.19618
G1 F600 Z0.75
G0 F18000 X111.268 Y97.752 Z0.75
G1 F600 Z0.25
G1 F2100 E37.69618
G1 X111.268 Y88.105 E37.95023
G1 F2700 E31.45023
G1 F600 Z0.75
G0 F18000 X115.076 Y88.105 Z0.75
G1 F600 Z0.25
G1 F2100 E37.95023
G1 X115.076 Y97.752 E38.20428
G1 F2700 E31.70428
G1 F600 Z0.75
G0 F18000 X118.884 Y102.76 Z0.75
G1 F600 Z0.25
G1 F2100 E38.20428
G1 X118.884 Y88.105 E38.59022
G1 F2700 E32.09022
G1 F600 Z0.75
G0 F18000 X122.692 Y88.105 Z0.75
G1 F600 Z0.25
G1 F2100 E38.59022
G1 X122.692 Y97.752 E38.84427
G1 F2700 E32.34427
G1 F600 Z0.75
G0 F18000 X126.5 Y97.752 Z0.75
G1 F600 Z0.25
G1 F2100 E38.84427
G1 X126.5 Y88.105 E39.09832
G1 F2700 E32.59832
G1 F600 Z0.75
G0 F18000 X130.308 Y88.105 Z0.75
G1 F600 Z0.25
G1 F2100 E39.09832
G1 X130.308 Y97.752 E39.35238
G1 F2700 E32.85238
G1 F600 Z0.75
G0 F18000 X134.116 Y97.752 Z0.75
G1 F600 Z0.25
G1 F2100 E39.35238
G1 X134.116 Y88.105 E39.60643
G1 F2700 E33.10643
G1 F600 Z0.75
G0 F18000 X137.922 Y88.111 Z0.75
G1 F600 Z0.25
G1 F2100 E39.60643
G1 X137.922 Y102.758 E39.99491
G1 F2700 E33.49491
G1 F600 Z0.75
G0 F18000 X141.73 Y97.75 Z0.75
G1 F600 Z0.25
G1 F2100 E39.99491
G1 X141.73 Y88.111 E40.25056
G1 F2700 E33.75056
G1 F600 Z0.75
G0 F18000 X145.538 Y88.111 Z0.75
G1 F600 Z0.25
G1 F2100 E40.25056
G1 X145.538 Y97.75 E40.50622
G1 F2700 E34.00622
G1 F600 Z0.75
G0 F18000 X149.344 Y97.752 Z0.75
M104 S200
G1 F600 Z0.25
G1 F2100 E40.50622
G1 X149.344 Y88.105 E40.76027
G1 F2700 E34.26027
G1 F600 Z0.75
G0 F18000 X153.152 Y88.105 Z0.75
G1 F600 Z0.25
G1 F2100 E40.76027
G1 X153.152 Y97.752 E41.01432
G1 F2700 E34.51432
G1 F600 Z0.75
G0 F18000 X156.96 Y102.76 Z0.75
G1 F600 Z0.25
G1 F2100 E41.01432
G1 X156.96 Y88.105 E41.40026
G1 F2700 E34.90026
G1 F600 Z0.75
G0 F18000 X160.768 Y88.105 Z0.75
G1 F600 Z0.25
G1 F2100 E41.40026
G1 X160.768 Y97.752 E41.65431
G1 F2700 E35.15431
G1 F600 Z0.75
G0 F18000 X164.576 Y97.752 Z0.75
G1 F600 Z0.25
G1 F2100 E41.65431
G1 X164.576 Y88.105 E41.90836
G1 F2700 E35.40836
G1 F600 Z0.75
G0 F18000 X168.384 Y88.105 Z0.75
G1 F600 Z0.25
G1 F2100 E41.90836
G1 X168.384 Y97.752 E42.16241
G1 F2700 E35.66241
G1 F600 Z0.75
G0 F18000 X172.192 Y97.752 Z0.75
G1 F600 Z0.25
G1 F2100 E42.16241
G1 X172.192 Y88.105 E42.41646
G1 F2700 E35.91646
G1 F600 Z0.75
G0 F18000 X175.998 Y88.111 Z0.75
G1 F600 Z0.25
G1 F2100 E42.41646
G1 X175.998 Y102.758 E42.80494
G1 F2700 E36.30494
G1 F600 Z0.75
G0 F18000 X179.806 Y97.75 Z0.75
G1 F600 Z0.25
G1 F2100 E42.80494
G1 X179.806 Y88.111 E43.0606
G1 F2700 E36.5606
G1 F600 Z0.75
G0 F18000 X183.614 Y88.111 Z0.75
G1 F600 Z0.25
G1 F2100 E43.0606
G1 X183.614 Y97.75 E43.31625
G1 F2700 E36.81625
G1 F600 Z0.75
G0 F18000 X187.42 Y97.752 Z0.75
G1 F600 Z0.25
G1 F2100 E43.31625
G1 X187.42 Y88.105 E43.5703
G1 F2700 E37.0703
G1 F600 Z0.75
G0 F18000 X191.228 Y88.105 Z0.75
G1 F600 Z0.25
G1 F2100 E43.5703
G1 X191.228 Y97.752 E43.82435
G1 F2700 E37.32435
G1 F600 Z0.75
G0 F18000 X195.036 Y102.76 Z0.75
G1 F600 Z0.25
G1 F2100 E43.82435
G1 X195.036 Y88.105 E44.21029
G1 F2700 E37.71029
G1 F600 Z0.75
G0 F18000 X198.844 Y88.105 Z0.75
G1 F600 Z0.25
G1 F2100 E44.21029
G1 X198.844 Y97.752 E44.46434
G1 F2700 E37.96434
G1 F600 Z0.75
G0 F18000 X202.652 Y97.752 Z0.75
G1 F600 Z0.25
G1 F2100 E44.46434
G1 X202.652 Y88.012 E44.72084
G1 X202.604 Y87.78 E44.72762
G1 X202.372 Y87.732 E44.73439
G1 X199.172 Y87.732 E44.81866
G1 F1200 E19.81866
G1 F600 Z0.75
G92 E0
T1